{
  "type": "FeatureCollection",
  "features": [
    {
      "type": "Feature",
      "properties": {
        "norad_id": 66907,
        "name": "1998-067XT",
        "group": "last-30-days",
        "lat": 49.231037778368105,
        "lon": -147.9781686585692,
        "alt_km": 408.83961621929575,
        "timestamp": "2025-12-12T03:50:51.179038+00:00",
        "meta_object_name": "1998-067XT",
        "meta_object_id": "1998-067XT",
        "meta_epoch": "2025-12-09T12:07:37.114752",
        "meta_mean_motion": 15.50864429,
        "meta_eccentricity": 0.00048036,
        "meta_inclination": 51.6307,
        "meta_ra_of_asc_node": 158.4423,
        "meta_arg_of_pericenter": 208.5081,
        "meta_mean_anomaly": 151.5646,
        "meta_ephemeris_type": 0,
        "meta_classification_type": "U",
        "meta_norad_cat_id": 66907,
        "meta_element_set_no": 999,
        "meta_rev_at_epoch": 111,
        "meta_bstar": 0.0012921241,
        "meta_mean_motion_dot": 0.00076342,
        "meta_mean_motion_ddot": 0,
        "tle_line1": "1 66907U 98067XT  25343.50529068  .00076342  00000+0  12921-2 0  9998",
        "tle_line2": "2 66907  51.6307 158.4423 0004803 208.5081 151.5646 15.50864429  1113"
      },
      "geometry": {
        "type": "Point",
        "coordinates": [
          -147.9781686585692,
          49.231037778368105
        ]
      }
    },
    {
      "type": "Feature",
      "properties": {
        "norad_id": 66908,
        "name": "1998-067XU",
        "group": "last-30-days",
        "lat": 49.7742593996696,
        "lon": -145.23822198456415,
        "alt_km": 408.4218557815293,
        "timestamp": "2025-12-12T03:50:51.179048+00:00",
        "meta_object_name": "1998-067XU",
        "meta_object_id": "1998-067XU",
        "meta_epoch": "2025-12-10T15:57:23.331168",
        "meta_mean_motion": 15.51115637,
        "meta_eccentricity": 0.00048129,
        "meta_inclination": 51.6304,
        "meta_ra_of_asc_node": 152.6848,
        "meta_arg_of_pericenter": 213.5482,
        "meta_mean_anomaly": 146.5203,
        "meta_ephemeris_type": 0,
        "meta_classification_type": "U",
        "meta_norad_cat_id": 66908,
        "meta_element_set_no": 999,
        "meta_rev_at_epoch": 129,
        "meta_bstar": 0.0014713865,
        "meta_mean_motion_dot": 0.00087912,
        "meta_mean_motion_ddot": 0,
        "tle_line1": "1 66908U 98067XU  25344.66485337  .00087912  00000+0  14714-2 0  9994",
        "tle_line2": "2 66908  51.6304 152.6848 0004812 213.5482 146.5203 15.51115637  1292"
      },
      "geometry": {
        "type": "Point",
        "coordinates": [
          -145.23822198456415,
          49.7742593996696
        ]
      }
    },
    {
      "type": "Feature",
      "properties": {
        "norad_id": 66909,
        "name": "SILVERSAT",
        "group": "last-30-days",
        "lat": 50.266599063603834,
        "lon": -142.34288837272578,
        "alt_km": 407.93521104548927,
        "timestamp": "2025-12-12T03:50:51.179058+00:00",
        "meta_object_name": "SILVERSAT",
        "meta_object_id": "1998-067XV",
        "meta_epoch": "2025-12-11T15:08:30.108192",
        "meta_mean_motion": 15.5141128,
        "meta_eccentricity": 0.00045448,
        "meta_inclination": 51.6302,
        "meta_ra_of_asc_node": 147.8859,
        "meta_arg_of_pericenter": 221.0614,
        "meta_mean_anomaly": 139.0034,
        "meta_ephemeris_type": 0,
        "meta_classification_type": "U",
        "meta_norad_cat_id": 66909,
        "meta_element_set_no": 999,
        "meta_rev_at_epoch": 144,
        "meta_bstar": 0.0013283829,
        "meta_mean_motion_dot": 0.00080084,
        "meta_mean_motion_ddot": 0,
        "tle_line1": "1 66909U 98067XV  25345.63090403  .00080084  00000+0  13284-2 0  9993",
        "tle_line2": "2 66909  51.6302 147.8859 0004544 221.0614 139.0034 15.51411280  1441"
      },
      "geometry": {
        "type": "Point",
        "coordinates": [
          -142.34288837272578,
          50.266599063603834
        ]
      }
    },
    {
      "type": "Feature",
      "properties": {
        "norad_id": 66910,
        "name": "1998-067XW",
        "group": "last-30-days",
        "lat": 51.50911324223252,
        "lon": -129.64749212582177,
        "alt_km": 406.3976332977945,
        "timestamp": "2025-12-12T03:50:51.179068+00:00",
        "meta_object_name": "1998-067XW",
        "meta_object_id": "1998-067XW",
        "meta_epoch": "2025-12-11T12:00:59.894208",
        "meta_mean_motion": 15.51542196,
        "meta_eccentricity": 0.00053507,
        "meta_inclination": 51.6307,
        "meta_ra_of_asc_node": 148.5174,
        "meta_arg_of_pericenter": 201.355,
        "meta_mean_anomaly": 158.7217,
        "meta_ephemeris_type": 0,
        "meta_classification_type": "U",
        "meta_norad_cat_id": 66910,
        "meta_element_set_no": 999,
        "meta_rev_at_epoch": 142,
        "meta_bstar": 0.0016174677,
        "meta_mean_motion_dot": 0.00098314,
        "meta_mean_motion_ddot": 0,
        "tle_line1": "1 66910U 98067XW  25345.50069322  .00098314  00000+0  16175-2 0  9994",
        "tle_line2": "2 66910  51.6307 148.5174 0005350 201.3550 158.7217 15.51542196  1422"
      },
      "geometry": {
        "type": "Point",
        "coordinates": [
          -129.64749212582177,
          51.50911324223252
        ]
      }
    },
    {
      "type": "Feature",
      "properties": {
        "norad_id": 66911,
        "name": "1998-067XX",
        "group": "last-30-days",
        "lat": 51.60864058522483,
        "lon": -124.21970173851976,
        "alt_km": 405.6614216986027,
        "timestamp": "2025-12-12T03:50:51.179078+00:00",
        "meta_object_name": "1998-067XX",
        "meta_object_id": "1998-067XX",
        "meta_epoch": "2025-12-11T04:16:32.481408",
        "meta_mean_motion": 15.5166419,
        "meta_eccentricity": 0.00051917,
        "meta_inclination": 51.6299,
        "meta_ra_of_asc_node": 150.1129,
        "meta_arg_of_pericenter": 201.0739,
        "meta_mean_anomaly": 159.0038,
        "meta_ephemeris_type": 0,
        "meta_classification_type": "U",
        "meta_norad_cat_id": 66911,
        "meta_element_set_no": 999,
        "meta_rev_at_epoch": 136,
        "meta_bstar": 0.0016096113,
        "meta_mean_motion_dot": 0.00098261,
        "meta_mean_motion_ddot": 0,
        "tle_line1": "1 66911U 98067XX  25345.17815372  .00098261  00000+0  16096-2 0  9995",
        "tle_line2": "2 66911  51.6299 150.1129 0005191 201.0739 159.0038 15.51664190  1368"
      },
      "geometry": {
        "type": "Point",
        "coordinates": [
          -124.21970173851976,
          51.60864058522483
        ]
      }
    },
    {
      "type": "Feature",
      "properties": {
        "norad_id": 66912,
        "name": "1998-067XY",
        "group": "last-30-days",
        "lat": 47.67555148585802,
        "lon": -154.2703028240727,
        "alt_km": 409.8363772170669,
        "timestamp": "2025-12-12T03:50:51.179088+00:00",
        "meta_object_name": "1998-067XY",
        "meta_object_id": "1998-067XY",
        "meta_epoch": "2025-12-11T12:04:50.239200",
        "meta_mean_motion": 15.50956901,
        "meta_eccentricity": 0.0004664,
        "meta_inclination": 51.6302,
        "meta_ra_of_asc_node": 148.5351,
        "meta_arg_of_pericenter": 216.8191,
        "meta_mean_anomaly": 143.2479,
        "meta_ephemeris_type": 0,
        "meta_classification_type": "U",
        "meta_norad_cat_id": 66912,
        "meta_element_set_no": 999,
        "meta_rev_at_epoch": 141,
        "meta_bstar": 0.0010602588,
        "meta_mean_motion_dot": 0.00062656,
        "meta_mean_motion_ddot": 0,
        "tle_line1": "1 66912U 98067XY  25345.50335925  .00062656  00000+0  10603-2 0  9991",
        "tle_line2": "2 66912  51.6302 148.5351 0004664 216.8191 143.2479 15.50956901  1415"
      },
      "geometry": {
        "type": "Point",
        "coordinates": [
          -154.2703028240727,
          47.67555148585802
        ]
      }
    },
    {
      "type": "Feature",
      "properties": {
        "norad_id": 66913,
        "name": "2025-284A",
        "group": "last-30-days",
        "lat": 45.57594912392521,
        "lon": -59.440112435145785,
        "alt_km": 502.60139200614594,
        "timestamp": "2025-12-12T03:50:51.179098+00:00",
        "meta_object_name": "2025-284A",
        "meta_object_id": "2025-284A",
        "meta_epoch": "2025-12-11T14:36:46.539936",
        "meta_mean_motion": 15.18932242,
        "meta_eccentricity": 0.00120204,
        "meta_inclination": 80.4046,
        "meta_ra_of_asc_node": 131.1983,
        "meta_arg_of_pericenter": 208.0709,
        "meta_mean_anomaly": 151.9872,
        "meta_ephemeris_type": 0,
        "meta_classification_type": "U",
        "meta_norad_cat_id": 66913,
        "meta_element_set_no": 999,
        "meta_rev_at_epoch": 95,
        "meta_bstar": 0.00070955263,
        "meta_mean_motion_dot": 0.00014878,
        "meta_mean_motion_ddot": 0,
        "tle_line1": "1 66913U 25284A   25345.60887199  .00014878  00000+0  70955-3 0  9999",
        "tle_line2": "2 66913  80.4046 131.1983 0012020 208.0709 151.9872 15.18932242   950"
      },
      "geometry": {
        "type": "Point",
        "coordinates": [
          -59.440112435145785,
          45.57594912392521
        ]
      }
    }
  ]
}